[Satellite]
VERSION=1.1
NAME=GOES 2 [-]
NICKNAME=GOES 2 [-]
TLE1=1 10061U 77048A   15054.50769559 -.00000047  00000-0  00000+0 0  9996
TLE2=2 10061  14.1918 336.8871 0013781 292.4717 261.0495  0.99399777 82447
